{"type":"FeatureCollection","features":[{"type":"Feature","id":"relation/13714901","properties":{"timestamp":"2023-03-20T08:18:52Z","version":4,"changeset":133887233,"user":"oos87","uid":1200466,"boundary":"place","name":"Katendrecht","place":"quarter","type":"boundary","wikidata":"Q1735822","wikipedia":"nl:Katendrecht","id":"relation/13714901"},"geometry":{"type":"Polygon","coordinates":[[[4.4788874,51.904042],[4.478578,51.9039477],[4.4770856,51.9033805],[4.472373,51.9015893],[4.4677819,51.9004589],[4.4694864,51.8984222],[4.4704065,51.8980345],[4.4762281,51.8951847],[4.4950509,51.8986173],[4.4958302,51.8985936],[4.4958706,51.8987921],[4.4964116,51.9014863],[4.496476,51.9019985],[4.4965749,51.9023662],[4.4971852,51.9044816],[4.4970084,51.9047648],[4.496731,51.9049701],[4.4964839,51.9047462],[4.4876158,51.902841],[4.4861014,51.9028424],[4.4841842,51.9030632],[4.481748,51.9035311],[4.4788874,51.904042]]]}},{"type":"Feature","id":"way/876322297","properties":{"timestamp":"2021-08-12T00:28:37Z","version":2,"changeset":109541205,"user":"JeroenvanderGun","uid":11963177,"boundary":"administrative","note":"waterschapsgrens","source":"Waterschappen Administratieve eenheden INSPIRE (Public Domain)","id":"way/876322297"},"geometry":{"type":"LineString","coordinates":[[4.4788874,51.904042],[4.478578,51.9039477],[4.4770856,51.9033805]]}},{"type":"Feature","id":"way/972408128","properties":{"timestamp":"2021-08-12T00:28:37Z","version":1,"changeset":109541205,"user":"JeroenvanderGun","uid":11963177,"boundary":"administrative","note":"waterschapsgrens","source":"Waterschappen Administratieve eenheden INSPIRE (Public Domain)","id":"way/972408128"},"geometry":{"type":"LineString","coordinates":[[4.4770856,51.9033805],[4.472373,51.9015893],[4.4677819,51.9004589]]}},{"type":"Feature","id":"node/918952996","properties":{"timestamp":"2022-01-24T16:24:14Z","version":6,"changeset":116547920,"user":"A67-A67","uid":553736,"name":"Katendrecht","place":"quarter","wikidata":"Q1735822","wikipedia":"nl:Katendrecht","id":"node/918952996"},"geometry":{"type":"Point","coordinates":[4.4812243,51.9007767]}},{"type":"Feature","id":"node/4895225922","properties":{"timestamp":"2023-04-01T20:05:20Z","version":3,"changeset":134393910,"user":"cEvLGWiQ","uid":5432507,"addr:city":"Rotterdam","addr:housenumber":"132","addr:postcode":"3072NE","addr:street":"Brede Hilledijk","amenity":"restaurant","cuisine":"middle_eastern","diet:halal":"yes","diet:meat":"yes","diet:vegetarian":"yes","name":"Meat & Zo","opening_hours":"Mo-Su 11:00-22:00","phone":"+31 10 846 0795","source":"local knowledge","source:date":"2017-06-04","website":"https://www.meatnzo.nl/","id":"node/4895225922"},"geometry":{"type":"Point","coordinates":[4.4945259,51.902146]}},{"type":"Feature","id":"node/9101321787","properties":{"timestamp":"2023-04-01T20:05:20Z","version":3,"changeset":134393910,"user":"cEvLGWiQ","uid":5432507,"addr:city":"Rotterdam","addr:housenumber":"134","addr:postcode":"3072NE","addr:street":"Brede Hilledijk","air_conditioning":"yes","branch":"Rotterdam","name":"Boon's Pitstop","note":"PostNL pick-up point","opening_hours":"Mo-Fr 07:00-20:00; Sa 10:00-20:00; Su 12:00-18:00","operator":"Boon Food Group","payment:cash":"yes","payment:debit_cards":"yes","phone":"+31 10 303 5420","shop":"supermarket","source":"local knowledge","source:date":"2021-09-08","website":"https://boonspitstop.nl/","id":"node/9101321787"},"geometry":{"type":"Point","coordinates":[4.4942245,51.9020866]}}]}